{
  "type": "FeatureCollection",
  "features": [
    {
      "type": "Feature",
      "properties": {
        "norad_id": 29268,
        "name": "ARIRANG-2 (KOMPSAT-2)",
        "group": "resource",
        "lat": -47.09018468807941,
        "lon": -171.45163433638416,
        "alt_km": 676.6925466398143,
        "timestamp": "2025-12-17T19:34:07.701256+00:00",
        "meta_object_name": "ARIRANG-2 (KOMPSAT-2)",
        "meta_object_id": "2006-031A",
        "meta_epoch": "2025-12-17T08:51:23.055840",
        "meta_mean_motion": 14.6449813,
        "meta_eccentricity": 0.0013314,
        "meta_inclination": 97.8258,
        "meta_ra_of_asc_node": 179.6157,
        "meta_arg_of_pericenter": 293.371,
        "meta_mean_anomaly": 187.1612,
        "meta_ephemeris_type": 0,
        "meta_classification_type": "U",
        "meta_norad_cat_id": 29268,
        "meta_element_set_no": 999,
        "meta_rev_at_epoch": 3486,
        "meta_bstar": 7.7249167e-05,
        "meta_mean_motion_dot": 3.65e-06,
        "meta_mean_motion_ddot": 0,
        "tle_line1": "1 29268U 06031A   25351.36901685  .00000365  00000+0  77249-4 0  9997",
        "tle_line2": "2 29268  97.8258 179.6157 0013314 293.3710 187.1612 14.64498130 34868"
      },
      "geometry": {
        "type": "Point",
        "coordinates": [
          -171.45163433638416,
          -47.09018468807941
        ]
      }
    },
    {
      "type": "Feature",
      "properties": {
        "norad_id": 29709,
        "name": "LAPAN-TUBSAT",
        "group": "resource",
        "lat": -81.18128849464459,
        "lon": 49.13736076109358,
        "alt_km": 626.6213213553756,
        "timestamp": "2025-12-17T19:34:07.701267+00:00",
        "meta_object_name": "LAPAN-TUBSAT",
        "meta_object_id": "2007-001A",
        "meta_epoch": "2025-12-17T07:01:37.233984",
        "meta_mean_motion": 14.85680107,
        "meta_eccentricity": 0.00135922,
        "meta_inclination": 98.1256,
        "meta_ra_of_asc_node": 341.5434,
        "meta_arg_of_pericenter": 60.614,
        "meta_mean_anomaly": 299.643,
        "meta_ephemeris_type": 0,
        "meta_classification_type": "U",
        "meta_norad_cat_id": 29709,
        "meta_element_set_no": 999,
        "meta_rev_at_epoch": 2414,
        "meta_bstar": 0.00010478013,
        "meta_mean_motion_dot": 8.52e-06,
        "meta_mean_motion_ddot": 0,
        "tle_line1": "1 29709U 07001A   25351.29279206  .00000852  00000+0  10478-3 0  9995",
        "tle_line2": "2 29709  98.1256 341.5434 0013592  60.6140 299.6430 14.85680107 24145"
      },
      "geometry": {
        "type": "Point",
        "coordinates": [
          49.13736076109358,
          -81.18128849464459
        ]
      }
    },
    {
      "type": "Feature",
      "properties": {
        "norad_id": 31113,
        "name": "HAIYANG-1B",
        "group": "resource",
        "lat": -59.44762937779928,
        "lon": 141.508931596478,
        "alt_km": 803.6708789164095,
        "timestamp": "2025-12-17T19:34:07.701278+00:00",
        "meta_object_name": "HAIYANG-1B",
        "meta_object_id": "2007-010A",
        "meta_epoch": "2025-12-17T05:01:23.485440",
        "meta_mean_motion": 14.3096659,
        "meta_eccentricity": 0.00140578,
        "meta_inclination": 98.3318,
        "meta_ra_of_asc_node": 335.3028,
        "meta_arg_of_pericenter": 25.3848,
        "meta_mean_anomaly": 334.8023,
        "meta_ephemeris_type": 0,
        "meta_classification_type": "U",
        "meta_norad_cat_id": 31113,
        "meta_element_set_no": 999,
        "meta_rev_at_epoch": 97460,
        "meta_bstar": 5.5625913e-05,
        "meta_mean_motion_dot": 1.05e-06,
        "meta_mean_motion_ddot": 0,
        "tle_line1": "1 31113U 07010A   25351.20929960  .00000105  00000+0  55626-4 0  9993",
        "tle_line2": "2 31113  98.3318 335.3028 0014057  25.3848 334.8023 14.30966590974606"
      },
      "geometry": {
        "type": "Point",
        "coordinates": [
          141.508931596478,
          -59.44762937779928
        ]
      }
    },
    {
      "type": "Feature",
      "properties": {
        "norad_id": 31598,
        "name": "COSMO-SKYMED 1",
        "group": "resource",
        "lat": 53.12444085605044,
        "lon": 166.60320628560277,
        "alt_km": 574.0126852174799,
        "timestamp": "2025-12-17T19:34:07.701288+00:00",
        "meta_object_name": "COSMO-SKYMED 1",
        "meta_object_id": "2007-023A",
        "meta_epoch": "2025-12-17T08:05:25.879776",
        "meta_mean_motion": 14.95801188,
        "meta_eccentricity": 0.00015348,
        "meta_inclination": 97.8834,
        "meta_ra_of_asc_node": 176.7662,
        "meta_arg_of_pericenter": 88.0111,
        "meta_mean_anomaly": 272.1285,
        "meta_ephemeris_type": 0,
        "meta_classification_type": "U",
        "meta_norad_cat_id": 31598,
        "meta_element_set_no": 999,
        "meta_rev_at_epoch": 259,
        "meta_bstar": 0.00032434405,
        "meta_mean_motion_dot": 3.56e-05,
        "meta_mean_motion_ddot": 0,
        "tle_line1": "1 31598U 07023A   25351.33710509  .00003560  00000+0  32434-3 0  9994",
        "tle_line2": "2 31598  97.8834 176.7662 0001534  88.0111 272.1285 14.95801188  2592"
      },
      "geometry": {
        "type": "Point",
        "coordinates": [
          166.60320628560277,
          53.12444085605044
        ]
      }
    },
    {
      "type": "Feature",
      "properties": {
        "norad_id": 31698,
        "name": "TERRASAR-X",
        "group": "resource",
        "lat": 43.520735262926934,
        "lon": -175.74417135075765,
        "alt_km": 504.02581768792516,
        "timestamp": "2025-12-17T19:34:07.701299+00:00",
        "meta_object_name": "TERRASAR-X",
        "meta_object_id": "2007-026A",
        "meta_epoch": "2025-12-16T12:56:11.976864",
        "meta_mean_motion": 15.19148195,
        "meta_eccentricity": 0.00018105,
        "meta_inclination": 97.4453,
        "meta_ra_of_asc_node": 355.8641,
        "meta_arg_of_pericenter": 90.2212,
        "meta_mean_anomaly": 269.923,
        "meta_ephemeris_type": 0,
        "meta_classification_type": "U",
        "meta_norad_cat_id": 31698,
        "meta_element_set_no": 999,
        "meta_rev_at_epoch": 2549,
        "meta_bstar": 6.9853987e-05,
        "meta_mean_motion_dot": 1.4e-05,
        "meta_mean_motion_ddot": 0,
        "tle_line1": "1 31698U 07026A   25350.53902751  .00001400  00000+0  69854-4 0  9999",
        "tle_line2": "2 31698  97.4453 355.8641 0001810  90.2212 269.9230 15.19148195 25494"
      },
      "geometry": {
        "type": "Point",
        "coordinates": [
          -175.74417135075765,
          43.520735262926934
        ]
      }
    },
    {
      "type": "Feature",
      "properties": {
        "norad_id": 32060,
        "name": "WORLDVIEW-1 (WV-1)",
        "group": "resource",
        "lat": -58.388182309197106,
        "lon": -82.93827896963846,
        "alt_km": 498.9662295450962,
        "timestamp": "2025-12-17T19:34:07.701309+00:00",
        "meta_object_name": "WORLDVIEW-1 (WV-1)",
        "meta_object_id": "2007-041A",
        "meta_epoch": "2025-12-17T07:29:53.430144",
        "meta_mean_motion": 15.2476548,
        "meta_eccentricity": 8.726e-05,
        "meta_inclination": 97.3838,
        "meta_ra_of_asc_node": 108.729,
        "meta_arg_of_pericenter": 115.5269,
        "meta_mean_anomaly": 244.6059,
        "meta_ephemeris_type": 0,
        "meta_classification_type": "U",
        "meta_norad_cat_id": 32060,
        "meta_element_set_no": 999,
        "meta_rev_at_epoch": 1517,
        "meta_bstar": 0.00027818133,
        "meta_mean_motion_dot": 6.823e-05,
        "meta_mean_motion_ddot": 0,
        "tle_line1": "1 32060U 07041A   25351.31242396  .00006823  00000+0  27818-3 0  9996",
        "tle_line2": "2 32060  97.3838 108.7290 0000872 115.5269 244.6059 15.24765480 15170"
      },
      "geometry": {
        "type": "Point",
        "coordinates": [
          -82.93827896963846,
          -58.388182309197106
        ]
      }
    },
    {
      "type": "Feature",
      "properties": {
        "norad_id": 32289,
        "name": "YAOGAN-3",
        "group": "resource",
        "lat": 24.210361079183393,
        "lon": -158.0538408626014,
        "alt_km": 597.6133409323056,
        "timestamp": "2025-12-17T19:34:07.701320+00:00",
        "meta_object_name": "YAOGAN-3",
        "meta_object_id": "2007-055A",
        "meta_epoch": "2025-12-17T05:58:43.288032",
        "meta_mean_motion": 14.89883912,
        "meta_eccentricity": 0.00013664,
        "meta_inclination": 97.8369,
        "meta_ra_of_asc_node": 17.8344,
        "meta_arg_of_pericenter": 74.2197,
        "meta_mean_anomaly": 285.9171,
        "meta_ephemeris_type": 0,
        "meta_classification_type": "U",
        "meta_norad_cat_id": 32289,
        "meta_element_set_no": 999,
        "meta_rev_at_epoch": 97876,
        "meta_bstar": 0.00026374522,
        "meta_mean_motion_dot": 2.48e-05,
        "meta_mean_motion_ddot": 0,
        "tle_line1": "1 32289U 07055A   25351.24911213  .00002480  00000+0  26375-3 0  9999",
        "tle_line2": "2 32289  97.8369  17.8344 0001366  74.2197 285.9171 14.89883912978764"
      },
      "geometry": {
        "type": "Point",
        "coordinates": [
          -158.0538408626014,
          24.210361079183393
        ]
      }
    }
  ]
}